CAS-2T & KS-1Q          
1 41847U 16066G   20269.88437998  .00000048  00000-0  18611-4 0  9991
2 41847  98.6436 321.3564 0364503 289.6924  66.5284 14.38092485203850
NAYIF-1 (EO-88)         
1 42017U 17008BX  20270.16267893  .00002113  00000-0  83061-4 0  9992
2 42017  97.3510 336.2224 0005319 341.6494  18.4552 15.26760210200919
MAX VALIER SAT          
1 42778U 17036P   20270.14936324  .00001191  00000-0  53835-4 0  9998
2 42778  97.2949 320.9524 0013001  35.4125 324.7973 15.22780824181059
RADFXSAT (FOX-1B)       
1 43017U 17073E   20269.79053458  .00000770  00000-0  64245-4 0  9992
2 43017  97.7153 178.1294 0258160  83.4217 279.6310 14.79024746153997
FOX-1D (AO-92)          
1 43137U 18004AC  20269.46908011  .00001257  00000-0  54309-4 0  9999
2 43137  97.4378 339.9200 0010649  68.7818 291.4555 15.24298117150278
DIWATA-2B               
1 43678U 18084H   20270.23060574  .00000240  00000-0  29599-4 0  9991
2 43678  97.8955  28.6935 0009093 196.0652 164.0322 14.91653087104047
ES'HAIL 2               
1 43700U 18090A   20269.84089227  .00000121  00000-0  00000+0 0  9994
2 43700   0.0181 208.9878 0001693 338.2379 146.4014  1.00267188  6955
FOX-1CLIFF (AO-95)      
1 43770U 18099N   20269.83717175  .00000032  00000-0  81600-5 0  9991
2 43770  97.6979 339.4291 0013624 217.2897 142.7379 14.95047306 98912
ITASAT 1                
1 43786U 18099AE  20269.74471382  .00000726  00000-0  70825-4 0  9991
2 43786  97.6995 339.8297 0014471 210.4170 149.6213 14.95376788 98920
JY1SAT (JO-97)          
1 43803U 18099AX  20270.14847840  .00000847  00000-0  81375-4 0  9999
2 43803  97.6955 340.0221 0014432 209.0618 150.9801 14.95565928 98985
PSAT2 (NO-104)          
1 44354U 19036R   20266.71717076  .00005694  00000-0  78146-4 0  9995
2 44354  28.5321 101.0473 0357213 271.1056  84.8638 15.05247572 68472
BRICSAT2 (NO-103)       
1 44355U 19036S   20269.76222164  .00022638  00000-0  30538-3 0  9992
2 44355  28.5325  66.2272 0329540 327.7675  30.3163 15.12322387 69086
JAISAT-1                
1 44419U 19038F   20269.89305134  .00001092  00000-0  65387-4 0  9990
2 44419  97.5495 230.3770 0022432 141.0088 219.2766 15.12927218 67789
DUCHIFAT-3              
1 44854U 19089C   20270.13731523  .00000340  00000-0  33872-4 0  9992
2 44854  36.9653 223.3038 0007496 161.4091 198.6926 14.99132516 43412
RS-44 & BREEZE-KM R/B   
1 44909U 19096E   20269.74491087  .00000027  00000-0  65444-4 0  9996
2 44909  82.5172 288.6758 0217211 352.3405   7.4395 12.79708205 35011
ORBITAL FACTORY 2 (OF-2)
1 45113U 19071C   20269.84210971  .00003443  00000-0  11532-3 0  9992
2 45113  51.6423 238.4834 0013496  60.1494 300.0827 15.33693840 36535
HUSKYSAT-1              
1 45119U 19071J   20270.13284273  .00003345  00000-0  11173-3 0  9990
2 45119  51.6413 236.6748 0012743  58.2170 302.0051 15.33883566 36578
